{"type": "FeatureCollection", "features": [{"type": "Feature", "properties": {"norad_id": 22490, "name": "SCD 1", "group": "resource", "lat": 11.345038888239477, "lon": 5.481590915666969, "alt_km": 764.3789648661814, "timestamp": "2025-12-02T19:35:50.218109+00:00", "meta": {"OBJECT_NAME": "SCD 1", "OBJECT_ID": "1993-009B", "EPOCH": "2025-12-02T10:13:06.223008", "MEAN_MOTION": 14.45986792, "ECCENTRICITY": 0.0041862, "INCLINATION": 24.971, "RA_OF_ASC_NODE": 342.3541, "ARG_OF_PERICENTER": 215.3163, "MEAN_ANOMALY": 294.024, "EPHEMERIS_TYPE": 0, "CLASSIFICATION_TYPE": "U", "NORAD_CAT_ID": 22490, "ELEMENT_SET_NO": 999, "REV_AT_EPOCH": 73260, "BSTAR": 0.00012458, "MEAN_MOTION_DOT": 6.42e-06, "MEAN_MOTION_DDOT": 0}, "tle": {"line1": "1 22490U 93009B   25336.42576647  .00000642  00000+0  12458-3 0  9992", "line2": "2 22490  24.9710 342.3541 0041862 215.3163 294.0240 14.45986792732600"}}, "geometry": {"type": "Point", "coordinates": [5.481590915666969, 11.345038888239477]}}, {"type": "Feature", "properties": {"norad_id": 25397, "name": "TECHSAT 1B (GO-32)", "group": "resource", "lat": 71.70077224903498, "lon": -68.8052000650589, "alt_km": 802.0305076265777, "timestamp": "2025-12-02T19:35:50.218136+00:00", "meta": {"OBJECT_NAME": "TECHSAT 1B (GO-32)", "OBJECT_ID": "1998-043D", "EPOCH": "2025-12-02T09:08:09.182112", "MEAN_MOTION": 14.24372307, "ECCENTRICITY": 0.0002259, "INCLINATION": 98.9914, "RA_OF_ASC_NODE": 319.3542, "ARG_OF_PERICENTER": 74.523, "MEAN_ANOMALY": 285.6197, "EPHEMERIS_TYPE": 0, "CLASSIFICATION_TYPE": "U", "NORAD_CAT_ID": 25397, "ELEMENT_SET_NO": 999, "REV_AT_EPOCH": 42331, "BSTAR": 8.3321e-05, "MEAN_MOTION_DOT": 1.46e-06, "MEAN_MOTION_DDOT": 0}, "tle": {"line1": "1 25397U 98043D   25336.38066183  .00000146  00000+0  83321-4 0  9995", "line2": "2 25397  98.9914 319.3542 0002259  74.5230 285.6197 14.24372307423318"}}, "geometry": {"type": "Point", "coordinates": [-68.8052000650589, 71.70077224903498]}}, {"type": "Feature", "properties": {"norad_id": 25504, "name": "SCD 2", "group": "resource", "lat": 24.599060537397122, "lon": -77.58294472929485, "alt_km": 742.2173028457009, "timestamp": "2025-12-02T19:35:50.218151+00:00", "meta": {"OBJECT_NAME": "SCD 2", "OBJECT_ID": "1998-060A", "EPOCH": "2025-12-02T08:22:08.651136", "MEAN_MOTION": 14.45414, "ECCENTRICITY": 0.0016726, "INCLINATION": 24.9937, "RA_OF_ASC_NODE": 205.9699, "ARG_OF_PERICENTER": 202.5525, "MEAN_ANOMALY": 318.5622, "EPHEMERIS_TYPE": 0, "CLASSIFICATION_TYPE": "U", "NORAD_CAT_ID": 25504, "ELEMENT_SET_NO": 999, "REV_AT_EPOCH": 43181, "BSTAR": 9.8916e-05, "MEAN_MOTION_DOT": 5.36e-06, "MEAN_MOTION_DDOT": 0}, "tle": {"line1": "1 25504U 98060A   25336.34871124  .00000536  00000+0  98916-4 0  9998", "line2": "2 25504  24.9937 205.9699 0016726 202.5525 318.5622 14.45414000431812"}}, "geometry": {"type": "Point", "coordinates": [-77.58294472929485, 24.599060537397122]}}, {"type": "Feature", "properties": {"norad_id": 25757, "name": "DLR-TUBSAT", "group": "resource", "lat": 14.224591076176138, "lon": -41.188491976516815, "alt_km": 727.1420671639935, "timestamp": "2025-12-02T19:35:50.218165+00:00", "meta": {"OBJECT_NAME": "DLR-TUBSAT", "OBJECT_ID": "1999-029B", "EPOCH": "2025-12-02T11:15:49.641984", "MEAN_MOTION": 14.52351212, "ECCENTRICITY": 0.0013347, "INCLINATION": 98.6555, "RA_OF_ASC_NODE": 320.6666, "ARG_OF_PERICENTER": 225.229, "MEAN_ANOMALY": 134.7819, "EPHEMERIS_TYPE": 0, "CLASSIFICATION_TYPE": "U", "NORAD_CAT_ID": 25757, "ELEMENT_SET_NO": 999, "REV_AT_EPOCH": 40469, "BSTAR": 6.1159e-05, "MEAN_MOTION_DOT": 2.01e-06, "MEAN_MOTION_DDOT": 0}, "tle": {"line1": "1 25757U 99029B   25336.46932456  .00000201  00000+0  61159-4 0  9991", "line2": "2 25757  98.6555 320.6666 0013347 225.2290 134.7819 14.52351212404697"}}, "geometry": {"type": "Point", "coordinates": [-41.188491976516815, 14.224591076176138]}}, {"type": "Feature", "properties": {"norad_id": 25994, "name": "TERRA", "group": "resource", "lat": 46.80473319227787, "lon": -142.547061704384, "alt_km": 683.7419176495341, "timestamp": "2025-12-02T19:35:50.218177+00:00", "meta": {"OBJECT_NAME": "TERRA", "OBJECT_ID": "1999-068A", "EPOCH": "2025-12-02T11:02:06.308736", "MEAN_MOTION": 14.60933302, "ECCENTRICITY": 0.0003376, "INCLINATION": 97.9764, "RA_OF_ASC_NODE": 28.5207, "ARG_OF_PERICENTER": 118.5544, "MEAN_ANOMALY": 298.756, "EPHEMERIS_TYPE": 0, "CLASSIFICATION_TYPE": "U", "NORAD_CAT_ID": 25994, "ELEMENT_SET_NO": 999, "REV_AT_EPOCH": 38088, "BSTAR": 0.00015897, "MEAN_MOTION_DOT": 7.34e-06, "MEAN_MOTION_DDOT": 0}, "tle": {"line1": "1 25994U 99068A   25336.45979524  .00000734  00000+0  15897-3 0  9991", "line2": "2 25994  97.9764  28.5207 0003376 118.5544 298.7560 14.60933302380889"}}, "geometry": {"type": "Point", "coordinates": [-142.547061704384, 46.80473319227787]}}, {"type": "Feature", "properties": {"norad_id": 27004, "name": "MAROC-TUBSAT", "group": "resource", "lat": 63.61455334411356, "lon": -14.542866705513495, "alt_km": 1006.3470517506084, "timestamp": "2025-12-02T19:35:50.218189+00:00", "meta": {"OBJECT_NAME": "MAROC-TUBSAT", "OBJECT_ID": "2001-056D", "EPOCH": "2025-12-02T10:24:58.972032", "MEAN_MOTION": 13.70252105, "ECCENTRICITY": 0.0019112, "INCLINATION": 99.7911, "RA_OF_ASC_NODE": 144.6986, "ARG_OF_PERICENTER": 287.5856, "MEAN_ANOMALY": 100.9799, "EPHEMERIS_TYPE": 0, "CLASSIFICATION_TYPE": "U", "NORAD_CAT_ID": 27004, "ELEMENT_SET_NO": 999, "REV_AT_EPOCH": 19924, "BSTAR": 3.5947e-05, "MEAN_MOTION_DOT": -1.5e-07, "MEAN_MOTION_DDOT": 0}, "tle": {"line1": "1 27004U 01056D   25336.43401588 -.00000015  00000+0  35947-4 0  9995", "line2": "2 27004  99.7911 144.6986 0019112 287.5856 100.9799 13.70252105199240"}}, "geometry": {"type": "Point", "coordinates": [-14.542866705513495, 63.61455334411356]}}, {"type": "Feature", "properties": {"norad_id": 27424, "name": "AQUA", "group": "resource", "lat": -23.550866171448764, "lon": -58.770942672651344, "alt_km": 693.2699131728432, "timestamp": "2025-12-02T19:35:50.218200+00:00", "meta": {"OBJECT_NAME": "AQUA", "OBJECT_ID": "2002-022A", "EPOCH": "2025-12-02T11:59:32.149824", "MEAN_MOTION": 14.61768633, "ECCENTRICITY": 7.3e-05, "INCLINATION": 98.4022, "RA_OF_ASC_NODE": 297.2134, "ARG_OF_PERICENTER": 106.9827, "MEAN_ANOMALY": 2.7837, "EPHEMERIS_TYPE": 0, "CLASSIFICATION_TYPE": "U", "NORAD_CAT_ID": 27424, "ELEMENT_SET_NO": 999, "REV_AT_EPOCH": 25453, "BSTAR": 0.00031046, "MEAN_MOTION_DOT": 1.5e-05, "MEAN_MOTION_DDOT": 0}, "tle": {"line1": "1 27424U 02022A   25336.49967766  .00001500  00000+0  31046-3 0  9990", "line2": "2 27424  98.4022 297.2134 0000730 106.9827   2.7837 14.61768633254538"}}, "geometry": {"type": "Point", "coordinates": [-58.770942672651344, -23.550866171448764]}}, {"type": "Feature", "properties": {"norad_id": 28051, "name": "IRS-P6 (RESOURCESAT-1)", "group": "resource", "lat": 37.77646562822501, "lon": 11.25104020890736, "alt_km": 813.8019133770958, "timestamp": "2025-12-02T19:35:50.218212+00:00", "meta": {"OBJECT_NAME": "IRS-P6 (RESOURCESAT-1)", "OBJECT_ID": "2003-046A", "EPOCH": "2025-12-02T13:28:11.491104", "MEAN_MOTION": 14.36066829, "ECCENTRICITY": 0.0063604, "INCLINATION": 98.2192, "RA_OF_ASC_NODE": 17.4393, "ARG_OF_PERICENTER": 211.3502, "MEAN_ANOMALY": 307.9317, "EPHEMERIS_TYPE": 0, "CLASSIFICATION_TYPE": "U", "NORAD_CAT_ID": 28051, "ELEMENT_SET_NO": 999, "REV_AT_EPOCH": 15230, "BSTAR": 0.00011908, "MEAN_MOTION_DOT": 3.13e-06, "MEAN_MOTION_DDOT": 0}, "tle": {"line1": "1 28051U 03046A   25336.56124411  .00000313  00000+0  11908-3 0  9990", "line2": "2 28051  98.2192  17.4393 0063604 211.3502 307.9317 14.36066829152305"}}, "geometry": {"type": "Point", "coordinates": [11.25104020890736, 37.77646562822501]}}, {"type": "Feature", "properties": {"norad_id": 28220, "name": "SHIYAN-1 (SY-1)", "group": "resource", "lat": -54.108481985912874, "lon": -153.284543049883, "alt_km": 492.26932616954764, "timestamp": "2025-12-02T19:35:50.218223+00:00", "meta": {"OBJECT_NAME": "SHIYAN-1 (SY-1)", "OBJECT_ID": "2004-012A", "EPOCH": "2025-12-02T10:42:45.224064", "MEAN_MOTION": 15.27725867, "ECCENTRICITY": 0.0006367, "INCLINATION": 97.8958, "RA_OF_ASC_NODE": 37.3804, "ARG_OF_PERICENTER": 3.4108, "MEAN_ANOMALY": 356.7173, "EPHEMERIS_TYPE": 0, "CLASSIFICATION_TYPE": "U", "NORAD_CAT_ID": 28220, "ELEMENT_SET_NO": 999, "REV_AT_EPOCH": 18099, "BSTAR": 0.0005948, "MEAN_MOTION_DOT": 0.00016059, "MEAN_MOTION_DDOT": 0}, "tle": {"line1": "1 28220U 04012A   25336.44635676  .00016059  00000+0  59480-3 0  9990", "line2": "2 28220  97.8958  37.3804 0006367   3.4108 356.7173 15.27725867180994"}}, "geometry": {"type": "Point", "coordinates": [-153.284543049883, -54.108481985912874]}}, {"type": "Feature", "properties": {"norad_id": 28376, "name": "AURA", "group": "resource", "lat": 40.953158272091365, "lon": 114.29151102139194, "alt_km": 686.4915464026944, "timestamp": "2025-12-02T19:35:50.218234+00:00", "meta": {"OBJECT_NAME": "AURA", "OBJECT_ID": "2004-026A", "EPOCH": "2025-12-02T10:44:48.840864", "MEAN_MOTION": 14.60906453, "ECCENTRICITY": 0.0001076, "INCLINATION": 98.3169, "RA_OF_ASC_NODE": 286.6277, "ARG_OF_PERICENTER": 90.3249, "MEAN_ANOMALY": 269.8074, "EPHEMERIS_TYPE": 0, "CLASSIFICATION_TYPE": "U", "NORAD_CAT_ID": 28376, "ELEMENT_SET_NO": 999, "REV_AT_EPOCH": 13748, "BSTAR": 0.00032197, "MEAN_MOTION_DOT": 1.528e-05, "MEAN_MOTION_DDOT": 0}, "tle": {"line1": "1 28376U 04026A   25336.44778751  .00001528  00000+0  32197-3 0  9990", "line2": "2 28376  98.3169 286.6277 0001076  90.3249 269.8074 14.60906453137480"}}, "geometry": {"type": "Point", "coordinates": [114.29151102139194, 40.953158272091365]}}]}